KUZGTU 1 (RS47S)        
1 57217U 23091AV  26191.57669643  .00008150  00000+0  27938-3 0  9997
2 57217  97.5057 256.3012 0010574  22.5573 337.6130 15.30403829167953
SONATE-2                
1 59112U 24043Q   26190.40279728  .00036930  00000+0  44852-3 0  9994
2 59112  97.5552 342.1927 0006780 123.5255 236.6650 15.60482785131352
MESAT1                  
1 60209U 24125G   26191.51548683  .00054117  00000+0  52771-3 0  9992
2 60209  97.2265  49.5713 0010994 127.0429 233.1839 15.65989421113214
OOV-CUBE (TUBSAT-30)    
1 60240U 24128F   26190.61158508  .00001327  00000+0  11249-3 0  9993
2 60240  61.9941 147.3745 0041807 138.6970 221.7297 15.02859618109486
COLIBRI-S (RS67S)       
1 61746U 24199M   26191.58834071  .00016477  00000+0  30865-3 0  9993
2 61746  97.2969  65.6677 0008390 178.4791 181.6487 15.48716899141034
HORS 3 (RS81S)          
1 61753U 24199U   26191.56570492  .00029756  00000+0  41764-3 0  9997
2 61753  97.2949  67.8963 0006531 170.2923 189.8459 15.56666612141196
HORS 4 (RS82S)          
1 61754U 24199V   26191.57942215  .00047039  00000+0  53726-3 0  9990
2 61754  97.2891  69.2727 0006503 161.4612 198.6884 15.62037841141297
SIT-2086                
1 61764U 24199AF  26191.57238456  .00030437  00000+0  45759-3 0  9997
2 61764  97.2908  68.2982 0007667 158.7195 201.4380 15.54778936138069
HYPERVIEW 1G (RS66S)    
1 61772U 24199AP  26191.56785476  .00184307  00000+0  82176-3 0  9994
2 61772  97.2812  72.5904 0008145 156.4976 203.6668 15.83741529138364
ALTAIR (RS65S)          
1 61779U 24199AW  26191.61096647  .00006013  00000+0  16567-3 0  9990
2 61779  97.3007  60.8109 0011537 213.9910 146.0597 15.37446595140718
ASRTU-1 (AO-123)        
1 61781U 24199AY  26191.62016011  .00005210  00000+0  15056-3 0  9991
2 61781  97.2978  60.0816 0012527 218.1376 141.8983 15.36011147137524
SAMSAT-IONOSPHERE (RS7*)
1 61784U 24199BB  26191.62068620  .00040060  00000+0  49855-3 0  9993
2 61784  97.2912  68.0911 0008680 175.1448 184.9895 15.59804592141216
RTU MIREA 1 (RS51S)     
1 61785U 24199BC  26191.58910015  .00049781  00000+0  52907-3 0  9994
2 61785  97.2902  69.0201 0008829 170.0568 190.0868 15.63856848138121
TEVEL2-4                
1 63213U 25052D   26191.19356909  .00014962  00000+0  43632-3 0  9992
2 63213  97.3878  87.6327 0003948  61.8463 298.3179 15.35449106 73641
TEVEL2-5                
1 63214U 25052E   26189.65245370  .00014062  00000+0  41324-3 0  9997
2 63214  97.3873  86.0291 0004130  66.2017 293.9660 15.35218873 73403
TEVEL2-6                
1 63215U 25052F   26190.77333909  .00013669  00000+0  40184-3 0  9994
2 63215  97.3877  87.1376 0003968  66.9512 293.2149 15.35215103 73575
TEVEL2-1                
1 63217U 25052H   26191.13644781  .00013953  00000+0  41737-3 0  9991
2 63217  97.3849  87.0975 0004544  70.7123 289.4612 15.34661443 73610
TEVEL2-3                
1 63218U 25052J   26191.13021186  .00014288  00000+0  42647-3 0  9993
2 63218  97.3855  87.1167 0004351  70.9758 289.1956 15.34723182 73611
TEVEL2-2                
1 63219U 25052K   26189.50651823  .00013021  00000+0  39012-3 0  9995
2 63219  97.3852  85.4689 0004704  73.9445 286.2316 15.34625790 73363
OTP-2                   
1 63235U 25052AB  26191.00871909  .00004897  00000+0  20317-3 0  9999
2 63235  97.3845  83.0996 0008285  85.2441 274.9742 15.24294167 73342
TEVEL2-9                
1 63237U 25052AD  26189.64245198  .00012819  00000+0  40918-3 0  9995
2 63237  97.3915  84.9331 0008135  74.7614 285.4527 15.32589963 73319
TEVEL2-7                
1 63238U 25052AE  26191.18957883  .00012809  00000+0  41238-3 0  9994
2 63238  97.3916  86.3844 0008113  70.6431 289.5687 15.32316838 73540
TEVEL2-8                
1 63239U 25052AF  26189.69605479  .00011621  00000+0  37502-3 0  9999
2 63239  97.3912  84.8694 0008175  75.3495 284.8653 15.32263765 73319
INNOSAT 16 (RS92S7)     
1 64878U 25155C   26191.61480784  .00003974  00000+0  15853-3 0  9995
2 64878  97.4574 158.6733 0012454 102.0664 258.1970 15.25707594 84244
GEOSCAN 6 (RS92S6)      
1 64879U 25155D   26191.58969882  .00007179  00000+0  24499-3 0  9990
2 64879  97.4563 160.2406 0010033  95.0102 265.2285 15.30596703 84341
GEOSCAN 1 (RS92S1)      
1 64880U 25155E   26191.58268964  .00007944  00000+0  26549-3 0  9993
2 64880  97.4559 160.4025 0009962  95.2731 264.9647 15.31239258 84355
239ALFEROV (RS61S)      
1 64881U 25155F   26191.58303823  .00010557  00000+0  32704-3 0  9992
2 64881  97.4558 161.0454 0009650  94.8363 265.3981 15.33586448 84396
GEOSCAN 2 (RS92S2)      
1 64890U 25155Q   26191.63767749  .00007521  00000+0  24953-3 0  9993
2 64890  97.4558 160.6194 0009206  84.9600 275.2692 15.31498470 84375
GEOSCAN 5 (RS92S5)      
1 64891U 25155R   26191.56727477  .00009566  00000+0  29388-3 0  9998
2 64891  97.4550 161.1759 0008657  98.8646 261.3577 15.33892582 84400
GEOSCAN 4 (RS92S4)      
1 64892U 25155S   26191.61426942  .00010515  00000+0  32105-3 0  9995
2 64892  97.4555 161.2787 0008608  98.8256 261.3962 15.34060529 84419
