OBJECT_NAME,OBJECT_ID,EPOCH,MEAN_MOTION,ECCENTRICITY,INCLINATION,RA_OF_ASC_NODE,ARG_OF_PERICENTER,MEAN_ANOMALY,EPHEMERIS_TYPE,CLASSIFICATION_TYPE,NORAD_CAT_ID,ELEMENT_SET_NO,REV_AT_EPOCH,BSTAR,MEAN_MOTION_DOT,MEAN_MOTION_DDOT
KUZGTU 1 (RS47S),2023-091AV,2026-07-10T13:50:26.571552,15.30403829,.00105749,97.5057,256.3012,22.5573,337.6130,0,U,57217,999,16795,.27937941E-3,.815E-4,0
SONATE-2,2024-043Q,2026-07-09T09:40:01.684992,15.60482785,.00067809,97.5552,342.1927,123.5255,236.6650,0,U,59112,999,13135,.44852354E-3,.3693E-3,0
MESAT1,2024-125G,2026-07-10T12:22:18.062112,15.65989421,.00109948,97.2265,49.5713,127.0429,233.1839,0,U,60209,999,11321,.52770975E-3,.54117E-3,0
OOV-CUBE (TUBSAT-30),2024-128F,2026-07-09T14:40:40.950912,15.02859618,.00418074,61.9941,147.3745,138.6970,221.7297,0,U,60240,999,10948,.11248636E-3,.1327E-4,0
COLIBRI-S (RS67S),2024-199M,2026-07-10T14:07:12.637344,15.48716899,.00083902,97.2969,65.6677,178.4791,181.6487,0,U,61746,999,14103,.30864576E-3,.16477E-3,0
HORS 3 (RS81S),2024-199U,2026-07-10T13:34:36.905088,15.56666612,.00065312,97.2949,67.8963,170.2923,189.8459,0,U,61753,999,14119,.417636E-3,.29756E-3,0
HORS 4 (RS82S),2024-199V,2026-07-10T13:54:22.073760,15.62037841,.00065032,97.2891,69.2727,161.4612,198.6884,0,U,61754,999,14129,.53725631E-3,.47039E-3,0
SIT-2086,2024-199AF,2026-07-10T13:44:14.025984,15.54778936,.00076676,97.2908,68.2982,158.7195,201.4380,0,U,61764,999,13806,.4575882E-3,.30437E-3,0
HYPERVIEW 1G (RS66S),2024-199AP,2026-07-10T13:37:42.651264,15.83741529,.00081456,97.2812,72.5904,156.4976,203.6668,0,U,61772,999,13836,.82176432E-3,.184307E-2,0
ALTAIR (RS65S),2024-199AW,2026-07-10T14:39:47.503008,15.37446595,.00115372,97.3007,60.8109,213.9910,146.0597,0,U,61779,999,14071,.1656717E-3,.6013E-4,0
ASRTU-1 (AO-123),2024-199AY,2026-07-10T14:53:01.833504,15.36011147,.0012527,97.2978,60.0816,218.1376,141.8983,0,U,61781,999,13752,.15056328E-3,.521E-4,0
SAMSAT-IONOSPHERE (RS75S),2024-199BB,2026-07-10T14:53:47.287680,15.59804592,.00086805,97.2912,68.0911,175.1448,184.9895,0,U,61784,999,14121,.49854678E-3,.4006E-3,0
RTU MIREA 1 (RS51S),2024-199BC,2026-07-10T14:08:18.252960,15.63856848,.00088292,97.2902,69.0201,170.0568,190.0868,0,U,61785,999,13812,.52907141E-3,.49781E-3,0
TEVEL2-4,2025-052D,2026-07-10T04:38:44.369376,15.35449106,.00039482,97.3878,87.6327,61.8463,298.3179,0,U,63213,999,7364,.43632379E-3,.14962E-3,0
TEVEL2-5,2025-052E,2026-07-08T15:39:31.999680,15.35218873,.00041301,97.3873,86.0291,66.2017,293.9660,0,U,63214,999,7340,.41324257E-3,.14062E-3,0
TEVEL2-6,2025-052F,2026-07-09T18:33:36.497376,15.35215103,.00039681,97.3877,87.1376,66.9512,293.2149,0,U,63215,999,7357,.40183524E-3,.13669E-3,0
TEVEL2-1,2025-052H,2026-07-10T03:16:29.090784,15.34661443,.00045441,97.3849,87.0975,70.7123,289.4612,0,U,63217,999,7361,.41736513E-3,.13953E-3,0
TEVEL2-3,2025-052J,2026-07-10T03:07:30.304704,15.34723182,.0004351,97.3855,87.1167,70.9758,289.1956,0,U,63218,999,7361,.42646563E-3,.14288E-3,0
TEVEL2-2,2025-052K,2026-07-08T12:09:23.175072,15.34625790,.00047047,97.3852,85.4689,73.9445,286.2316,0,U,63219,999,7336,.39012445E-3,.13021E-3,0
OTP-2,2025-052AB,2026-07-10T00:12:33.329376,15.24294167,.00082851,97.3845,83.0996,85.2441,274.9742,0,U,63235,999,7334,.20316794E-3,.4897E-4,0
TEVEL2-9,2025-052AD,2026-07-08T15:25:07.851072,15.32589963,.0008135,97.3915,84.9331,74.7614,285.4527,0,U,63237,999,7331,.40917582E-3,.12819E-3,0
TEVEL2-7,2025-052AE,2026-07-10T04:32:59.610912,15.32316838,.00081131,97.3916,86.3844,70.6431,289.5687,0,U,63238,999,7354,.41238455E-3,.12809E-3,0
TEVEL2-8,2025-052AF,2026-07-08T16:42:19.133856,15.32263765,.00081757,97.3912,84.8694,75.3495,284.8653,0,U,63239,999,7331,.37502066E-3,.11621E-3,0
INNOSAT 16 (RS92S7),2025-155C,2026-07-10T14:45:19.397376,15.25707594,.00124548,97.4574,158.6733,102.0664,258.1970,0,U,64878,999,8424,.15852851E-3,.3974E-4,0
GEOSCAN 6 (RS92S6),2025-155D,2026-07-10T14:09:09.978048,15.30596703,.00100339,97.4563,160.2406,95.0102,265.2285,0,U,64879,999,8434,.24498967E-3,.7179E-4,0
GEOSCAN 1 (RS92S1),2025-155E,2026-07-10T13:59:04.384896,15.31239258,.00099625,97.4559,160.4025,95.2731,264.9647,0,U,64880,999,8435,.26548974E-3,.7944E-4,0
239ALFEROV (RS61S),2025-155F,2026-07-10T13:59:34.503072,15.33586448,.00096503,97.4558,161.0454,94.8363,265.3981,0,U,64881,999,8439,.32704285E-3,.10557E-3,0
GEOSCAN 2 (RS92S2),2025-155Q,2026-07-10T15:18:15.335136,15.31498470,.0009206,97.4558,160.6194,84.9600,275.2692,0,U,64890,999,8437,.24953232E-3,.7521E-4,0
GEOSCAN 5 (RS92S5),2025-155R,2026-07-10T13:36:52.540128,15.33892582,.00086573,97.4550,161.1759,98.8646,261.3577,0,U,64891,999,8440,.29387576E-3,.9566E-4,0
GEOSCAN 4 (RS92S4),2025-155S,2026-07-10T14:44:32.877888,15.34060529,.00086081,97.4555,161.2787,98.8256,261.3962,0,U,64892,999,8441,.32104586E-3,.10515E-3,0
